KUZGTU 1 (RS47S)        
1 57217U 23091AV  26194.12664955  .00008352  00000+0  28590-3 0  9991
2 57217  97.5056 258.8787 0010278  13.6984 346.4533 15.30442421168346
SONATE-2                
1 59112U 24043Q   26193.92942654  .00032561  00000+0  39252-3 0  9993
2 59112  97.5542 345.9461 0006908 113.4535 246.7449 15.60702194131904
MESAT1                  
1 60209U 24125G   26193.56016104  .00047409  00000+0  45928-3 0  9999
2 60209  97.2256  51.6710 0010956 120.7531 239.4810 15.66181054113537
OOV-CUBE (TUBSAT-30)    
1 60240U 24128F   26193.93833363  .00001101  00000+0  96041-4 0  9994
2 60240  61.9937 135.7729 0041426 139.5225 220.8961 15.02868542109983
COLIBRI-S (RS67S)       
1 61746U 24199M   26194.10815237  .00016330  00000+0  30505-3 0  9996
2 61746  97.2961  68.2135 0008730 169.5614 190.5820 15.48792971141425
HORS 3 (RS81S)          
1 61753U 24199U   26194.13689088  .00029654  00000+0  41406-3 0  9995
2 61753  97.2941  70.5240 0006950 162.0918 198.0583 15.56803900141592
HORS 4 (RS82S)          
1 61754U 24199V   26194.07767135  .00044465  00000+0  50424-3 0  9996
2 61754  97.2885  71.8451 0006807 154.1229 206.0371 15.62231871141680
SIT-2086                
1 61764U 24199AF  26194.08233331  .00029549  00000+0  44208-3 0  9993
2 61764  97.2899  70.8548 0008008 150.9096 209.2606 15.54914988138458
HYPERVIEW 1G (RS66S)    
1 61772U 24199AP  26194.09455499  .00197695  00000+0  84439-3 0  9992
2 61772  97.2814  75.2752 0008217 152.4844 207.6863 15.84617860138763
ALTAIR (RS65S)          
1 61779U 24199AW  26194.14926789  .00006535  00000+0  17965-3 0  9992
2 61779  97.3000  63.3332 0011813 204.1241 155.9452 15.37479152141101
ASRTU-1 (AO-123)        
1 61781U 24199AY  26194.09569267  .00004925  00000+0  14233-3 0  9999
2 61781  97.2970  62.5351 0012786 208.5908 151.4636 15.36035569137906
SAMSAT-IONOSPHERE (RS7*)
1 61784U 24199BB  26194.12252046  .00038691  00000+0  47831-3 0  9997
2 61784  97.2907  70.6591 0008978 167.1803 192.9684 15.59983783141607
RTU MIREA 1 (RS51S)     
1 61785U 24199BC  26194.08442147  .00053462  00000+0  56264-3 0  9999
2 61785  97.2895  71.5968 0009077 161.9252 198.2332 15.64089082138513
TEVEL2-4                
1 63213U 25052D   26193.66997237  .00012793  00000+0  37280-3 0  9993
2 63213  97.3881  90.1160 0003752  57.2753 302.8852 15.35507888 74027
TEVEL2-5                
1 63214U 25052E   26194.14966325  .00011850  00000+0  34745-3 0  9998
2 63214  97.3876  90.5369 0003789  56.8499 303.3107 15.35333367 74094
TEVEL2-6                
1 63215U 25052F   26193.70635361  .00012019  00000+0  35290-3 0  9997
2 63215  97.3879  90.0772 0003782  60.8657 299.2965 15.35286777 74025
TEVEL2-1                
1 63217U 25052H   26193.67932411  .00011444  00000+0  34224-3 0  9998
2 63217  97.3853  89.6437 0004433  65.2904 294.8800 15.34718554 74008
TEVEL2-3                
1 63218U 25052J   26193.67298572  .00011907  00000+0  35527-3 0  9993
2 63218  97.3855  89.6625 0004208  66.7009 293.4677 15.34780805 74007
TEVEL2-2                
1 63219U 25052K   26193.67946926  .00011375  00000+0  34007-3 0  9998
2 63219  97.3850  89.6469 0004492  65.9197 294.2516 15.34729067 74007
OTP-2                   
1 63235U 25052AB  26192.64986825  .00004286  00000+0  17810-3 0  9990
2 63235  97.3846  84.7167 0008306  80.9023 279.3154 15.24307968 73590
TEVEL2-9                
1 63237U 25052AD  26194.14738759  .00010512  00000+0  33505-3 0  9998
2 63237  97.3915  89.4327 0007832  62.8126 297.3913 15.32691499 74009
TEVEL2-7                
1 63238U 25052AE  26194.12814935  .00012090  00000+0  38867-3 0  9997
2 63238  97.3913  89.3184 0007880  62.4172 297.7869 15.32378299 73999
TEVEL2-8                
1 63239U 25052AF  26193.67954411  .00011622  00000+0  37402-3 0  9995
2 63239  97.3914  88.8465 0007981  64.8281 295.3788 15.32353925 73922
INNOSAT 16 (RS92S7)     
1 64878U 25155C   26194.10703969  .00003556  00000+0  14209-3 0  9995
2 64878  97.4576 161.1592 0012471  94.7015 265.5647 15.25725581 84625
GEOSCAN 6 (RS92S6)      
1 64879U 25155D   26194.13933912  .00006630  00000+0  22623-3 0  9997
2 64879  97.4566 162.8026 0010006  87.9035 272.3351 15.30630083 84731
GEOSCAN 1 (RS92S1)      
1 64880U 25155E   26194.19660644  .00006823  00000+0  22815-3 0  9991
2 64880  97.4562 163.0316 0009959  87.9841 272.2540 15.31275143 84758
239ALFEROV (RS61S)      
1 64881U 25155F   26194.19294816  .00009137  00000+0  28303-3 0  9995
2 64881  97.4561 163.6799 0009642  87.7160 272.5187 15.33634043 84794
GEOSCAN 2 (RS92S2)      
1 64890U 25155Q   26194.12047976  .00007323  00000+0  24280-3 0  9996
2 64890  97.4560 163.1175 0009114  78.1883 282.0380 15.31533211 84756
GEOSCAN 5 (RS92S5)      
1 64891U 25155R   26194.11143014  .00009690  00000+0  29719-3 0  9997
2 64891  97.4552 163.7448 0008645  92.1909 268.0323 15.33940425 84796
GEOSCAN 4 (RS92S4)      
1 64892U 25155S   26194.09291956  .00009574  00000+0  29213-3 0  9994
2 64892  97.4558 163.7823 0008577  92.4105 267.8120 15.34107370 84792
