OBJECT_NAME,OBJECT_ID,EPOCH,MEAN_MOTION,ECCENTRICITY,INCLINATION,RA_OF_ASC_NODE,ARG_OF_PERICENTER,MEAN_ANOMALY,EPHEMERIS_TYPE,CLASSIFICATION_TYPE,NORAD_CAT_ID,ELEMENT_SET_NO,REV_AT_EPOCH,BSTAR,MEAN_MOTION_DOT,MEAN_MOTION_DDOT
KUZGTU 1 (RS47S),2023-091AV,2026-07-13T03:02:22.521120,15.30442421,.0010278,97.5056,258.8787,13.6984,346.4533,0,U,57217,999,16834,.2859E-3,.8352E-4,0
SONATE-2,2024-043Q,2026-07-12T22:18:22.453056,15.60702194,.0006908,97.5542,345.9461,113.4535,246.7449,0,U,59112,999,13190,.39252E-3,.32561E-3,0
MESAT1,2024-125G,2026-07-12T13:26:37.913856,15.66181054,.00109567,97.2256,51.6710,120.7531,239.4810,0,U,60209,999,11353,.45928267E-3,.47409E-3,0
OOV-CUBE (TUBSAT-30),2024-128F,2026-07-12T22:31:12.025632,15.02868542,.0041426,61.9937,135.7729,139.5225,220.8961,0,U,60240,999,10998,.96041E-4,.1101E-4,0
COLIBRI-S (RS67S),2024-199M,2026-07-13T02:35:44.364768,15.48792971,.000873,97.2961,68.2135,169.5614,190.5820,0,U,61746,999,14142,.30505E-3,.1633E-3,0
HORS 3 (RS81S),2024-199U,2026-07-13T03:17:07.372032,15.56803900,.000695,97.2941,70.5240,162.0918,198.0583,0,U,61753,999,14159,.41406E-3,.29654E-3,0
HORS 4 (RS82S),2024-199V,2026-07-13T01:51:50.804640,15.62231871,.0006807,97.2885,71.8451,154.1229,206.0371,0,U,61754,999,14168,.50424E-3,.44465E-3,0
SIT-2086,2024-199AF,2026-07-13T01:58:33.597984,15.54914988,.0008008,97.2899,70.8548,150.9096,209.2606,0,U,61764,999,13845,.44208E-3,.29549E-3,0
HYPERVIEW 1G (RS66S),2024-199AP,2026-07-13T02:16:09.551136,15.84617860,.0008217,97.2814,75.2752,152.4844,207.6863,0,U,61772,999,13876,.84439E-3,.197695E-2,0
ALTAIR (RS65S),2024-199AW,2026-07-13T03:34:56.745696,15.37479152,.0011813,97.3000,63.3332,204.1241,155.9452,0,U,61779,999,14110,.17965E-3,.6535E-4,0
ASRTU-1 (AO-123),2024-199AY,2026-07-13T02:17:47.846688,15.36035569,.0012786,97.2970,62.5351,208.5908,151.4636,0,U,61781,999,13790,.14233E-3,.4925E-4,0
SAMSAT-IONOSPHERE (RS75S),2024-199BB,2026-07-13T02:56:25.767744,15.59983783,.0008978,97.2907,70.6591,167.1803,192.9684,0,U,61784,999,14160,.47831E-3,.38691E-3,0
RTU MIREA 1 (RS51S),2024-199BC,2026-07-13T02:01:34.015008,15.64089082,.0009077,97.2895,71.5968,161.9252,198.2332,0,U,61785,999,13851,.56264E-3,.53462E-3,0
TEVEL2-4,2025-052D,2026-07-12T16:04:45.612768,15.35507888,.0003752,97.3881,90.1160,57.2753,302.8852,0,U,63213,999,7402,.3728E-3,.12793E-3,0
TEVEL2-5,2025-052E,2026-07-13T03:35:30.904800,15.35333367,.0003789,97.3876,90.5369,56.8499,303.3107,0,U,63214,999,7409,.34745E-3,.1185E-3,0
TEVEL2-6,2025-052F,2026-07-12T16:57:08.951904,15.35286777,.0003782,97.3879,90.0772,60.8657,299.2965,0,U,63215,999,7402,.3529E-3,.12019E-3,0
TEVEL2-1,2025-052H,2026-07-12T16:18:13.603104,15.34718554,.0004433,97.3853,89.6437,65.2904,294.8800,0,U,63217,999,7400,.34224E-3,.11444E-3,0
TEVEL2-3,2025-052J,2026-07-12T16:09:05.966208,15.34780805,.0004208,97.3855,89.6625,66.7009,293.4677,0,U,63218,999,7400,.35527E-3,.11907E-3,0
TEVEL2-2,2025-052K,2026-07-12T16:18:26.144064,15.34729067,.0004492,97.3850,89.6469,65.9197,294.2516,0,U,63219,999,7400,.34007E-3,.11375E-3,0
OTP-2,2025-052AB,2026-07-11T15:35:48.616800,15.24307968,.00083062,97.3846,84.7167,80.9023,279.3154,0,U,63235,999,7359,.17810231E-3,.4286E-4,0
TEVEL2-9,2025-052AD,2026-07-13T03:32:14.287776,15.32691499,.0007832,97.3915,89.4327,62.8126,297.3913,0,U,63237,999,7400,.33505E-3,.10512E-3,0
TEVEL2-7,2025-052AE,2026-07-13T03:04:32.103840,15.32378299,.000788,97.3913,89.3184,62.4172,297.7869,0,U,63238,999,7399,.38867E-3,.1209E-3,0
TEVEL2-8,2025-052AF,2026-07-12T16:18:32.611104,15.32353925,.0007981,97.3914,88.8465,64.8281,295.3788,0,U,63239,999,7392,.37402E-3,.11622E-3,0
INNOSAT 16 (RS92S7),2025-155C,2026-07-13T02:34:08.229216,15.25725581,.0012471,97.4576,161.1592,94.7015,265.5647,0,U,64878,999,8462,.14209E-3,.3556E-4,0
GEOSCAN 6 (RS92S6),2025-155D,2026-07-13T03:20:38.899968,15.30630083,.0010006,97.4566,162.8026,87.9035,272.3351,0,U,64879,999,8473,.22623E-3,.663E-4,0
GEOSCAN 1 (RS92S1),2025-155E,2026-07-13T04:43:06.796416,15.31275143,.0009959,97.4562,163.0316,87.9841,272.2540,0,U,64880,999,8475,.22815E-3,.6823E-4,0
239ALFEROV (RS61S),2025-155F,2026-07-13T04:37:50.721024,15.33634043,.0009642,97.4561,163.6799,87.7160,272.5187,0,U,64881,999,8479,.28303E-3,.9137E-4,0
GEOSCAN 2 (RS92S2),2025-155Q,2026-07-13T02:53:29.451264,15.31533211,.0009114,97.4560,163.1175,78.1883,282.0380,0,U,64890,999,8475,.2428E-3,.7323E-4,0
GEOSCAN 5 (RS92S5),2025-155R,2026-07-13T02:40:27.564096,15.33940425,.0008645,97.4552,163.7448,92.1909,268.0323,0,U,64891,999,8479,.29719E-3,.969E-4,0
GEOSCAN 4 (RS92S4),2025-155S,2026-07-13T02:13:48.249984,15.34107370,.0008577,97.4558,163.7823,92.4105,267.8120,0,U,64892,999,8479,.29213E-3,.9574E-4,0
